{
  "type": "FeatureCollection",
  "features": [
    {
      "type": "Feature",
      "properties": {
        "norad_id": 67067,
        "name": "HULIANWANG DIGUI-127",
        "group": "last-30-days",
        "lat": 9.101701184506753,
        "lon": -37.935519215944716,
        "alt_km": 800.8345546336659,
        "timestamp": "2025-12-26T10:30:48.977995+00:00",
        "meta_object_name": "HULIANWANG DIGUI-127",
        "meta_object_id": "2025-295J",
        "meta_epoch": "2025-12-22T15:39:07.411968",
        "meta_mean_motion": 14.26251195,
        "meta_eccentricity": 0.00108509,
        "meta_inclination": 50.0053,
        "meta_ra_of_asc_node": 330.3407,
        "meta_arg_of_pericenter": 289.3117,
        "meta_mean_anomaly": 70.6623,
        "meta_ephemeris_type": 0,
        "meta_classification_type": "U",
        "meta_norad_cat_id": 67067,
        "meta_element_set_no": 999,
        "meta_rev_at_epoch": 153,
        "meta_bstar": -0.00027534515,
        "meta_mean_motion_dot": -8.25e-06,
        "meta_mean_motion_ddot": 0,
        "tle_line1": "1 67067U 25295J   25356.65216912 -.00000825  00000+0 -27535-3 0  9993",
        "tle_line2": "2 67067  50.0053 330.3407 0010850 289.3117  70.6623 14.26251195  1535"
      },
      "geometry": {
        "type": "Point",
        "coordinates": [
          -37.935519215944716,
          9.101701184506753
        ]
      }
    },
    {
      "type": "Feature",
      "properties": {
        "norad_id": 67068,
        "name": "CZ-12 R/B",
        "group": "last-30-days",
        "lat": 43.51951626034789,
        "lon": 5.779551246177657,
        "alt_km": 769.3804153229921,
        "timestamp": "2025-12-26T10:30:48.978006+00:00",
        "meta_object_name": "CZ-12 R/B",
        "meta_object_id": "2025-295K",
        "meta_epoch": "2025-12-26T03:33:29.181024",
        "meta_mean_motion": 14.4113029,
        "meta_eccentricity": 0.0056903,
        "meta_inclination": 49.9942,
        "meta_ra_of_asc_node": 314.1431,
        "meta_arg_of_pericenter": 183.9866,
        "meta_mean_anomaly": 176.0608,
        "meta_ephemeris_type": 0,
        "meta_classification_type": "U",
        "meta_norad_cat_id": 67068,
        "meta_element_set_no": 999,
        "meta_rev_at_epoch": 204,
        "meta_bstar": 3.5159e-05,
        "meta_mean_motion_dot": -5.2e-07,
        "meta_mean_motion_ddot": 0,
        "tle_line1": "1 67068U 25295K   25360.14825441 -.00000052  00000+0  35159-4 0  9999",
        "tle_line2": "2 67068  49.9942 314.1431 0056903 183.9866 176.0608 14.41130290  2046"
      },
      "geometry": {
        "type": "Point",
        "coordinates": [
          5.779551246177657,
          43.51951626034789
        ]
      }
    },
    {
      "type": "Feature",
      "properties": {
        "norad_id": 67069,
        "name": "XIWANG-5 02",
        "group": "last-30-days",
        "lat": -26.530746173525515,
        "lon": -121.98231047079193,
        "alt_km": 518.934268502655,
        "timestamp": "2025-12-26T10:30:48.978018+00:00",
        "meta_object_name": "XIWANG-5 02",
        "meta_object_id": "2025-296A",
        "meta_epoch": "2025-12-23T12:00:44.103744",
        "meta_mean_motion": 15.16891516,
        "meta_eccentricity": 0.00145566,
        "meta_inclination": 41.3523,
        "meta_ra_of_asc_node": 40.1941,
        "meta_arg_of_pericenter": 102.8792,
        "meta_mean_anomaly": 257.3656,
        "meta_ephemeris_type": 0,
        "meta_classification_type": "U",
        "meta_norad_cat_id": 67069,
        "meta_element_set_no": 999,
        "meta_rev_at_epoch": 159,
        "meta_bstar": 0.00060249038,
        "meta_mean_motion_dot": 0.00011945,
        "meta_mean_motion_ddot": 0,
        "tle_line1": "1 67069U 25296A   25357.50051046  .00011945  00000+0  60249-3 0  9998",
        "tle_line2": "2 67069  41.3523  40.1941 0014556 102.8792 257.3656 15.16891516  1599"
      },
      "geometry": {
        "type": "Point",
        "coordinates": [
          -121.98231047079193,
          -26.530746173525515
        ]
      }
    },
    {
      "type": "Feature",
      "properties": {
        "norad_id": 67070,
        "name": "DEAR-5",
        "group": "last-30-days",
        "lat": -29.07697397519886,
        "lon": -117.36476509215666,
        "alt_km": 519.9272126951555,
        "timestamp": "2025-12-26T10:30:48.978030+00:00",
        "meta_object_name": "DEAR-5",
        "meta_object_id": "2025-296B",
        "meta_epoch": "2025-12-23T23:03:08.623008",
        "meta_mean_motion": 15.16917161,
        "meta_eccentricity": 0.0016166,
        "meta_inclination": 41.3551,
        "meta_ra_of_asc_node": 37.5614,
        "meta_arg_of_pericenter": 107.8349,
        "meta_mean_anomaly": 252.4237,
        "meta_ephemeris_type": 0,
        "meta_classification_type": "U",
        "meta_norad_cat_id": 67070,
        "meta_element_set_no": 999,
        "meta_rev_at_epoch": 165,
        "meta_bstar": 0.0002755,
        "meta_mean_motion_dot": 5.352e-05,
        "meta_mean_motion_ddot": 0,
        "tle_line1": "1 67070U 25296B   25357.96051647  .00005352  00000+0  27550-3 0  9990",
        "tle_line2": "2 67070  41.3551  37.5614 0016166 107.8349 252.4237 15.16917161  1654"
      },
      "geometry": {
        "type": "Point",
        "coordinates": [
          -117.36476509215666,
          -29.07697397519886
        ]
      }
    },
    {
      "type": "Feature",
      "properties": {
        "norad_id": 67071,
        "name": "KZ-11 R/B",
        "group": "last-30-days",
        "lat": -39.80493037778666,
        "lon": -84.8430887240227,
        "alt_km": 323.54774726107917,
        "timestamp": "2025-12-26T10:30:48.978041+00:00",
        "meta_object_name": "KZ-11 R/B",
        "meta_object_id": "2025-296C",
        "meta_epoch": "2025-12-24T07:54:11.602080",
        "meta_mean_motion": 15.73894626,
        "meta_eccentricity": 0.03315074,
        "meta_inclination": 41.3001,
        "meta_ra_of_asc_node": 37.0775,
        "meta_arg_of_pericenter": 35.4688,
        "meta_mean_anomaly": 326.7718,
        "meta_ephemeris_type": 0,
        "meta_classification_type": "U",
        "meta_norad_cat_id": 67071,
        "meta_element_set_no": 999,
        "meta_rev_at_epoch": 169,
        "meta_bstar": 0.00038975112,
        "meta_mean_motion_dot": 0.10609436,
        "meta_mean_motion_ddot": 7.766669e-06,
        "tle_line1": "1 67071U 25296C   25358.32930095  .10609436  77667-5  38975-3 0  9991",
        "tle_line2": "2 67071  41.3001  37.0775 0331507  35.4688 326.7718 15.73894626  1695"
      },
      "geometry": {
        "type": "Point",
        "coordinates": [
          -84.8430887240227,
          -39.80493037778666
        ]
      }
    },
    {
      "type": "Feature",
      "properties": {
        "norad_id": 67073,
        "name": "RAISE-4",
        "group": "last-30-days",
        "lat": -21.009702858617878,
        "lon": 150.51212170107883,
        "alt_km": 547.1191699182054,
        "timestamp": "2025-12-26T10:30:48.978051+00:00",
        "meta_object_name": "RAISE-4",
        "meta_object_id": "2025-297B",
        "meta_epoch": "2025-12-25T21:51:39.079008",
        "meta_mean_motion": 15.07237028,
        "meta_eccentricity": 0.001165,
        "meta_inclination": 97.4853,
        "meta_ra_of_asc_node": 147.1048,
        "meta_arg_of_pericenter": 271.3968,
        "meta_mean_anomaly": 88.5925,
        "meta_ephemeris_type": 0,
        "meta_classification_type": "U",
        "meta_norad_cat_id": 67073,
        "meta_element_set_no": 999,
        "meta_rev_at_epoch": 177,
        "meta_bstar": 0.00035355175,
        "meta_mean_motion_dot": 5.275e-05,
        "meta_mean_motion_ddot": 0,
        "tle_line1": "1 67073U 25297B   25359.91086897  .00005275  00000+0  35355-3 0  9992",
        "tle_line2": "2 67073  97.4853 147.1048 0011650 271.3968  88.5925 15.07237028  1772"
      },
      "geometry": {
        "type": "Point",
        "coordinates": [
          150.51212170107883,
          -21.009702858617878
        ]
      }
    },
    {
      "type": "Feature",
      "properties": {
        "norad_id": 67074,
        "name": "ELECTRON KICK STAGE R/B",
        "group": "last-30-days",
        "lat": 8.41849160750143,
        "lon": 147.45527509955247,
        "alt_km": 495.3391009059251,
        "timestamp": "2025-12-26T10:30:48.978061+00:00",
        "meta_object_name": "ELECTRON KICK STAGE R/B",
        "meta_object_id": "2025-297C",
        "meta_epoch": "2025-12-25T23:42:12.159936",
        "meta_mean_motion": 15.60381011,
        "meta_eccentricity": 0.0188179,
        "meta_inclination": 97.4815,
        "meta_ra_of_asc_node": 148.0945,
        "meta_arg_of_pericenter": 221.4493,
        "meta_mean_anomaly": 137.2363,
        "meta_ephemeris_type": 0,
        "meta_classification_type": "U",
        "meta_norad_cat_id": 67074,
        "meta_element_set_no": 999,
        "meta_rev_at_epoch": 184,
        "meta_bstar": 0.0017982,
        "meta_mean_motion_dot": 0.00359366,
        "meta_mean_motion_ddot": 3.7348e-05,
        "tle_line1": "1 67074U 25297C   25359.98764074  .00359366  37348-4  17982-2 0  9998",
        "tle_line2": "2 67074  97.4815 148.0945 0188179 221.4493 137.2363 15.60381011  1844"
      },
      "geometry": {
        "type": "Point",
        "coordinates": [
          147.45527509955247,
          8.41849160750143
        ]
      }
    }
  ]
}